STARLINK-24
1 44238U 19029D   22117.82984617  .00109851  00000-0  39393-2 0  9993
2 44238  53.0104 346.7127 0004814 177.2320 182.8705 15.27849725162139
STARLINK-71
1 44252U 19029T   22117.85094874  .00104116  00000-0  34641-2 0  9999
2 44252  52.9984 343.2788 0005799 174.0306 186.0763 15.30319362162184
STARLINK-1007
1 44713U 19074A   22117.53219448  .00001600  00000-0  12632-3 0  9993
2 44713  53.0542  46.0286 0001451  70.8001 289.3145 15.06398635135909
STARLINK-1008
1 44714U 19074B   22117.84276385  .00001325  00000-0  10785-3 0  9992
2 44714  53.0564  44.6600 0001463  54.4196 305.6930 15.06390952136127
STARLINK-1009
1 44715U 19074C   22117.49997361 -.00001096  00000-0 -54685-4 0  9993
2 44715  53.0566  46.1877 0001468  79.1362 280.9792 15.06389826135899
STARLINK-1010
1 44716U 19074D   22117.51837564  .00003250  00000-0  23689-3 0  9996
2 44716  53.0566  46.1108 0001241  75.7011 284.4115 15.06415502136057
STARLINK-1011
1 44717U 19074E   22117.38385613  .00001537  00000-0  12209-3 0  9997
2 44717  53.0547  66.6913 0001739  54.1949 305.9201 15.06399101135602
STARLINK-1012
1 44718U 19074F   22117.48891121  .00000965  00000-0  83657-4 0  9995
2 44718  53.0567  46.2390 0001565  71.6476 288.4683 15.06394482135891
STARLINK-1013
1 44719U 19074G   22117.62897272 -.00000606  00000-0 -21828-4 0  9991
2 44719  53.0568  45.6130 0001136  44.5211 315.5869 15.06390933136085
STARLINK-1014
1 44720U 19074H   22117.18297080  .00001484  00000-0  11849-3 0  9999
2 44720  53.0554  47.5989 0001617  59.1225 300.9923 15.06400106135853
STARLINK-1015
1 44721U 19074J   22117.50365352  .00000686  00000-0  64974-4 0  9995
2 44721  53.0582  46.1709 0001468  59.5606 300.5527 15.06393513135894
STARLINK-1016
1 44722U 19074K   22117.77272116  .00001120  00000-0  94101-4 0  9999
2 44722  53.0569  44.9594 0001508  72.8407 287.2747 15.06390945136117
STARLINK-1017
1 44723U 19074L   22117.52207992  .00003684  00000-0  26612-3 0  9991
2 44723  53.0553  46.0933 0001466  68.3766 291.7380 15.06399414135901
STARLINK-1019
1 44724U 19074M   22117.21983657 -.00000034  00000-0  16613-4 0  9995
2 44724  53.0574  47.4493 0001696  52.8584 307.2560 15.06395362135857
STARLINK-1020
1 44725U 19074N   22117.22536548  .00000949  00000-0  82620-4 0  9995
2 44725  53.0549  67.4055 0001831  63.3115 296.8061 15.06399320135570
STARLINK-1021
1 44726U 19074P   22117.21614383  .00000768  00000-0  70450-4 0  9996
2 44726  53.0557  47.4599 0001581  66.2734 293.8421 15.06400394135854
STARLINK-1022
1 44727U 19074Q   22117.31840500 -.00000933  00000-0 -43742-4 0  9990
2 44727  53.0551  87.0029 0001924  56.1523 303.9649 15.06409595135321
STARLINK-1024
1 44729U 19074S   22117.55755643  .00025027  00000-0  14653-2 0  9997
2 44729  53.0023  58.1392 0002112  89.1394 270.9838 15.11694521135707
STARLINK-1026
1 44731U 19074U   22117.22721168 -.00000046  00000-0  15778-4 0  9995
2 44731  53.0582  47.3982 0001377  60.0641 300.0484 15.06387290135854
STARLINK-1027
1 44732U 19074V   22117.54604130 -.00000269  00000-0  82287-6 0  9998
2 44732  53.0564  65.9705 0001803  60.4045 299.7123 15.06394728135623
STARLINK-1028
1 44733U 19074W   22117.80958042  .00002415  00000-0  18096-3 0  9990
2 44733  53.0548  44.7963 0001895  48.7642 311.3510 15.06401111136111
STARLINK-1029
1 44734U 19074X   22117.82432969  .00004187  00000-0  29979-3 0  9998
2 44734  53.0541 324.7346 0001552  70.3212 289.7944 15.06403646137211
STARLINK-1030
1 44735U 19074Y   22117.81880172  .00000317  00000-0  40213-4 0  9997
2 44735  53.0568  64.7428 0001861  44.6451 315.4688 15.06395651135839
STARLINK-1031
1 44736U 19074Z   22117.56816076  .00004953  00000-0  35124-3 0  9996
2 44736  53.0554  65.8907 0001659  59.6488 300.4665 15.06390472135633
STARLINK-1032
1 44737U 19074AA  22117.57922134  .00002387  00000-0  17920-3 0  9994
2 44737  53.0562  65.8411 0001788  52.6350 307.4802 15.06382324135803
STARLINK-1033
1 44738U 19074AB  22117.56446501  .00000941  00000-0  82035-4 0  9997
2 44738  53.0568  65.8998 0001705  49.1221 310.9915 15.06399647135627
STARLINK-1052
1 44739U 19074AC  22117.11385723  .00030060  00000-0  17235-2 0  9990
2 44739  52.9977  60.3728 0002453  86.6830 273.4441 15.12353665135628
STARLINK-1035
1 44740U 19074AD  22117.77456760  .00002581  00000-0  19209-3 0  9995
2 44740  53.0550  64.9530 0001635  58.0050 302.1097 15.06405088135838
STARLINK-1036
1 44741U 19074AE  22117.58658829  .00000633  00000-0  61440-4 0  9996
2 44741  53.0558  65.7895 0001763  51.9155 308.1993 15.06392771135802
STARLINK-1037
1 44742U 19074AF  22117.54600330  .00031607  00000-0  17497-2 0  9993
2 44742  52.9956  53.4331 0002017  70.7747 289.3463 15.13587301135761
STARLINK-1038
1 44743U 19074AG  22117.63634379  .00000805  00000-0  72974-4 0  9993
2 44743  53.0559  85.5705 0001764  57.5707 302.5452 15.06395827135534
STARLINK-1039
1 44744U 19074AH  22117.64740741  .00001231  00000-0  10152-3 0  9999
2 44744  53.0560  85.5198 0001807  57.6362 302.4802 15.06392804135539
STARLINK-1041
1 44746U 19074AK  22117.63266409  .00000086  00000-0  24663-4 0  9994
2 44746  53.0568  85.5945 0001810  50.5572 309.5577 15.06396596135537
STARLINK-1042
1 44747U 19074AL  22117.33042230 -.00002366  00000-0 -14008-3 0  9992
2 44747  53.0573  86.9475 0001623  57.2166 302.8979 15.06381575135322
STARLINK-1043
1 44748U 19074AM  22117.42625349 -.00000328  00000-0 -30958-5 0  9991
2 44748  53.0555  86.5079 0001463  61.3072 298.8064 15.06389176135338
STARLINK-1046
1 44751U 19074AQ  22117.64003306  .00000859  00000-0  76587-4 0  9996
2 44751  53.0537  85.5588 0001950  51.6999 308.4165 15.06395916135538
STARLINK-1047
1 44752U 19074AR  22117.79299734  .00004096  00000-0  29368-3 0  9996
2 44752  53.0561  64.8738 0001866  49.7731 310.3421 15.06407646135835
STARLINK-1048
1 44753U 19074AS  22117.53314312  .00000010  00000-0  19590-4 0  9998
2 44753  53.0574  46.0316 0001408  69.4416 290.6724 15.06393706136079
STARLINK-1049
1 44754U 19074AT  22117.80221077  .00001530  00000-0  12157-3 0  9993
2 44754  53.0553  44.8427 0002169  56.4212 303.6984 15.06404629136116
STARLINK-1034
1 44757U 19074AW  22117.33962373  .00003049  00000-0  22351-3 0  9999
2 44757  53.0544  66.9066 0001811  50.5772 309.5377 15.06402448135591
STARLINK-1053
1 44758U 19074AX  22117.28155028  .00000634  00000-0  61482-4 0  9991
2 44758  53.0566  87.1741 0001806  54.2568 305.8588 15.06395659135317
STARLINK-1054
1 44759U 19074AY  22117.20508816 -.00000075  00000-0  13883-4 0  9993
2 44759  53.0543  87.5098 0001783  62.5489 297.5681 15.06403505132947
STARLINK-1055
1 44760U 19074AZ  22117.32303621 -.00000489  00000-0 -13882-4 0  9994
2 44760  53.0578  86.9791 0002121  44.2778 315.8381 15.06408300135329
STARLINK-1056
1 44761U 19074BA  22117.40045157  .00000122  00000-0  27103-4 0  9994
2 44761  53.0553  86.6295 0001714  50.6025 309.5116 15.06391868135339
STARLINK-1057
1 44762U 19074BB  22117.26959157  .00001396  00000-0  11257-3 0  9999
2 44762  53.0569  67.2098 0001924  42.2850 317.8287 15.06401361135587
STARLINK-1058
1 44763U 19074BC  22117.28986915  .00000213  00000-0  33216-4 0  9991
2 44763  53.0555  87.1405 0001604  51.2844 308.8288 15.06391562135317
STARLINK-1059
1 44764U 19074BD  22117.26590248  .00001281  00000-0  10487-3 0  9990
2 44764  53.0573  67.2418 0002050  46.6264 313.4896 15.06400500135580
STARLINK-1060
1 44765U 19074BE  22117.81511289  .00001074  00000-0  90968-4 0  9993
2 44765  53.0566  64.7613 0001574  63.6401 296.4750 15.06397048135833
STARLINK-1061
1 44766U 19074BF  22117.28249886  .00000310  00000-0  39685-4 0  9997
2 44766  53.0563  87.1600 0001478  60.3091 299.8045 15.06394467135317
STARLINK-1062
1 44767U 19074BG  22117.60685684  .00002291  00000-0  17267-3 0  9995
2 44767  53.0572  85.6915 0002103  48.5861 311.5309 15.06394878135534
STARLINK-1063
1 44768U 19074BH  22117.42993146 -.00002384  00000-0 -14119-3 0  9999
2 44768  53.0540  86.4859 0001706  43.1531 316.9591 15.06396434135340
STARLINK-1065
1 44770U 19074BK  22117.58896804  .00027280  00000-0  15154-2 0  9991
2 44770  53.0003  73.7754 0001770  72.6588 287.4597 15.13539686135669
STARLINK-1067
1 44771U 19074BL  22117.61792671  .00006067  00000-0  42626-3 0  9998
2 44771  53.0546  85.6495 0002258  40.9376 319.1783 15.06366166135530
STARLINK-1068
1 44772U 19074BM  22117.27696994 -.00000067  00000-0  14394-4 0  9999
2 44772  53.0564  67.1954 0001697  50.3673 309.7465 15.06392085135583
STARLINK-1073
1 44914U 20001A   22117.49259828  .00004491  00000-0  32019-3 0  9991
2 44914  53.0537 206.2113 0001773  51.9733 308.1416 15.06402982126995
STARLINK-1084
1 44915U 20001B   22117.45574720 -.00000227  00000-0  36363-5 0  9991
2 44915  53.0544 206.3674 0001476  61.9086 298.2052 15.06388198126996
STARLINK-1098
1 44917U 20001D   22117.52577675  .00002509  00000-0  18728-3 0  9990
2 44917  53.0530 206.0663 0001868  53.3909 306.7252 15.06402660127003
STARLINK-1099
1 44918U 20001E   22117.93491193  .00012626  00000-0  86470-3 0  9996
2 44918  53.0529 204.2281 0001754  51.7837 308.3310 15.06413673127801
STARLINK-1102
1 44920U 20001G   22117.48522908  .00002454  00000-0  18358-3 0  9996
2 44920  53.0558 206.2554 0001701  52.1801 307.9342 15.06397814126996
STARLINK-1103
1 44921U 20001H   22117.50734955  .00002355  00000-0  17696-3 0  9991
2 44921  53.0527 206.1369 0001526  63.3364 296.7781 15.06391869126973
STARLINK-1104
1 44922U 20001J   22117.54052080  .00000077  00000-0  24069-4 0  9990
2 44922  53.0530 205.9877 0001631  55.1010 305.0132 15.06384523127001
STARLINK-1106
1 44923U 20001K   22117.49997490  .00002290  00000-0  17261-3 0  9992
2 44923  53.0553 206.1868 0001656  59.8806 300.2347 15.06394953126991
STARLINK-1111
1 44924U 20001L   22117.48891887 -.00000161  00000-0  80909-5 0  9992
2 44924  53.0554 206.2388 0001678  58.2898 301.8255 15.06396031126993
STARLINK-1112
1 44925U 20001M   22117.50365598 -.00001599  00000-0 -88477-4 0  9995
2 44925  53.0532 206.1586 0001752  51.7539 308.3607 15.06393567126996
